NORAD_CAT_ID,OBJECT_NAME,OBJECT_TYPE,EPOCH,MEAN_MOTION,ECCENTRICITY,INCLINATION,RA_OF_ASC_NODE,ARG_OF_PERICENTER,MEAN_ANOMALY,BSTAR,MEAN_MOTION_DOT,MEAN_MOTION_DDOT,TLE_LINE0,TLE_LINE1,TLE_LINE2,SEMIMAJOR_AXIS,PERIOD,APOGEE,PERIGEE,DECAYED
53020.0,STARLINK-4287,PAYLOAD,2023-03-09 00:28:20,15.08852396,0.0002425,53.2157,327.2649,67.1817,292.9431,0.00087336,0.00013644,0.0,0 STARLINK-4287,1 53020U 22076AL  23068.01968327  .00013644  00000-0  87336-3 0  9990,2 53020  53.2157 327.2649 0002425  67.1817 292.9431 15.08852396 37895,6917.842,95.437,541.385,538.03,0.0
53020.0,STARLINK-4287,PAYLOAD,2023-03-09 21:08:21,15.08855706,0.0001406,53.2172,323.4027,46.3071,313.8037,0.0010401,0.00016311,0.0,0 STARLINK-4287,1 53020U 22076AL  23068.88080400  .00016311  00000-0  10401-2 0  9994,2 53020  53.2172 323.4027 0001406  46.3071 313.8037 15.08855706 37555,6917.832,95.437,540.67,538.725,0.0
53020.0,STARLINK-4287,PAYLOAD,2023-03-10 00:19:07,15.08878576,0.0001688,53.2163,322.8068,50.3414,309.7727,0.0020882,0.00033138,0.0,0 STARLINK-4287,1 53020U 22076AL  23069.01328103  .00033138  00000-0  20882-2 0  9995,2 53020  53.2163 322.8068 0001688  50.3414 309.7727 15.08878576 38046,6917.762,95.435,540.795,538.46,0.0
53020.0,STARLINK-4287,PAYLOAD,2023-03-10 20:59:08,15.08843905,9.62e-05,53.2155,318.9391,64.467,295.6421,0.0016703,0.00026398,0.0,0 STARLINK-4287,1 53020U 22076AL  23069.87440924  .00026398  00000-0  16703-2 0  9992,2 53020  53.2155 318.9391 0000962  64.4670 295.6421 15.08843905 37700,6917.868,95.437,540.399,539.068,0.0
53020.0,STARLINK-4287,PAYLOAD,2023-03-11 01:45:18,15.08837475,0.0001175,53.2156,318.0479,128.2809,231.8289,0.001104,0.00017325,0.0,0 STARLINK-4287,1 53020U 22076AL  23070.07312809  .00017325  00000-0  11040-2 0  9995,2 53020  53.2156 318.0479 0001175 128.2809 231.8289 15.08837475 38204,6917.888,95.438,540.566,538.94,0.0
53020.0,STARLINK-4287,PAYLOAD,2023-03-11 06:31:27,15.08839889,0.0001042,53.2156,317.1535,117.4142,242.6956,0.000917,0.00014336,0.0,0 STARLINK-4287,1 53020U 22076AL  23070.27184879  .00014336  00000-0  91700-3 0  9992,2 53020  53.2156 317.1535 0001042 117.4142 242.6956 15.08839889 37762,6917.881,95.438,540.467,539.025,0.0
53020.0,STARLINK-4287,PAYLOAD,2023-03-12 01:36:05,15.08847861,0.0001015,53.2155,313.5857,111.0006,249.1095,0.00054572,8.41e-05,0.0,0 STARLINK-4287,1 53020U 22076AL  23071.06672804  .00008410  00000-0  54572-3 0  9992,2 53020  53.2155 313.5857 0001015 111.0006 249.1095 15.08847861 38358,6917.856,95.437,540.424,539.019,0.0
53020.0,STARLINK-4287,PAYLOAD,2023-03-13 01:26:52,15.08853344,0.0001774,53.2156,309.1266,73.925,286.1937,0.00052022,8.004e-05,0.0,0 STARLINK-4287,1 53020U 22076AL  23072.06033087  .00008004  00000-0  52022-3 0  9994,2 53020  53.2156 309.1266 0001774  73.9250 286.1937 15.08853344 38509,6917.84,95.437,540.932,538.477,0.0
53020.0,STARLINK-4287,PAYLOAD,2023-03-14 01:17:39,15.08840104,0.000109,53.2163,304.6643,152.7343,207.3707,0.00054511,8.398e-05,0.0,0 STARLINK-4287,1 53020U 22076AL  23073.05392863  .00008398  00000-0  54511-3 0  9995,2 53020  53.2163 304.6643 0001090 152.7343 207.3707 15.08840104 38652,6917.88,95.438,540.499,538.991,0.0
53020.0,STARLINK-4287,PAYLOAD,2023-03-14 21:57:40,15.08858808,0.0001678,53.2161,300.7997,94.1675,265.9509,0.00074742,0.00011633,0.0,0 STARLINK-4287,1 53020U 22076AL  23073.91504840  .00011633  00000-0  74742-3 0  9994,2 53020  53.2161 300.7997 0001678  94.1675 265.9509 15.08858808 38311,6917.823,95.436,540.849,538.527,0.0
53020.0,STARLINK-4287,PAYLOAD,2023-03-15 01:08:26,15.08862247,0.0001763,53.2141,300.2062,94.2064,265.9129,0.00071111,0.00011054,0.0,0 STARLINK-4287,1 53020U 22076AL  23074.04752709  .00011054  00000-0  71111-3 0  9992,2 53020  53.2141 300.2062 0001763  94.2064 265.9129 15.08862247 38337,6917.812,95.436,540.897,538.458,0.0
53020.0,STARLINK-4287,PAYLOAD,2023-03-15 21:48:26,15.08854835,0.000219,53.2177,296.3379,90.7808,269.3435,0.00030856,4.628e-05,0.0,0 STARLINK-4287,1 53020U 22076AL  23074.90864500  .00004628  00000-0  30856-3 0  9990,2 53020  53.2177 296.3379 0002190  90.7808 269.3435 15.08854835 38460,6917.835,95.437,541.215,538.185,0.0
53020.0,STARLINK-4287,PAYLOAD,2023-03-16 00:59:13,15.08854094,0.0001141,53.214,295.7443,96.6018,263.5104,0.00037385,5.669e-05,0.0,0 STARLINK-4287,1 53020U 22076AL  23075.04112415  .00005669  00000-0  37385-3 0  9997,2 53020  53.2140 295.7443 0001141  96.6018 263.5104 15.08854094 38958,6917.837,95.437,540.492,538.913,0.0
53020.0,STARLINK-4287,PAYLOAD,2023-03-16 21:39:15,15.08820587,0.0001415,53.2155,291.8795,83.5647,276.5506,0.00048882,7.496e-05,0.0,0 STARLINK-4287,1 53020U 22076AL  23075.90225816  .00007496  00000-0  48882-3 0  9996,2 53020  53.2155 291.8795 0001415  83.5647 276.5506 15.08820587 39083,6917.94,95.439,540.784,538.826,0.0
53020.0,STARLINK-4287,PAYLOAD,2023-03-17 07:11:34,15.08831777,9.86e-05,53.2146,290.0951,77.358,282.7523,0.00034626,5.226e-05,0.0,0 STARLINK-4287,1 53020U 22076AL  23076.29970032  .00005226  00000-0  34626-3 0  9996,2 53020  53.2146 290.0951 0000986  77.3580 282.7523 15.08831777 38672,6917.906,95.438,540.453,539.088,0.0
53020.0,STARLINK-4287,PAYLOAD,2023-03-18 00:40:48,15.08860141,7.74e-05,53.2143,286.8239,66.5962,293.5111,0.00099152,0.00015536,0.0,0 STARLINK-4287,1 53020U 22076AL  23077.02833550  .00015536  00000-0  99152-3 0  9991,2 53020  53.2143 286.8239 0000774  66.5962 293.5111 15.08860141 39255,6917.819,95.436,540.219,539.148,0.0
53020.0,STARLINK-4287,PAYLOAD,2023-03-18 07:02:20,15.08846651,9.12e-05,53.2145,285.6343,64.737,295.3716,0.00050134,7.701e-05,0.0,0 STARLINK-4287,1 53020U 22076AL  23077.29329829  .00007701  00000-0  50134-3 0  9991,2 53020  53.2145 285.6343 0000912  64.7370 295.3716 15.08846651 39292,6917.86,95.437,540.356,539.094,0.0
53020.0,STARLINK-4287,PAYLOAD,2023-03-18 21:20:48,15.08852376,0.000107,53.2143,282.9588,71.3878,288.7231,0.00052922,8.148e-05,0.0,0 STARLINK-4287,1 53020U 22076AL  23077.88945597  .00008148  00000-0  52922-3 0  9995,2 53020  53.2143 282.9588 0001070  71.3878 288.7231 15.08852376 38911,6917.843,95.437,540.448,538.967,0.0
53020.0,STARLINK-4287,PAYLOAD,2023-03-19 13:14:40,15.08855718,0.0001184,53.2134,279.985,78.027,282.0855,0.00088194,0.00013782,0.0,0 STARLINK-4287,1 53020U 22076AL  23078.55185543  .00013782  00000-0  88194-3 0  9997,2 53020  53.2134 279.9850 0001184  78.0270 282.0855 15.08855718 39480,6917.832,95.437,540.516,538.878,0.0
53020.0,STARLINK-4287,PAYLOAD,2023-03-19 19:36:12,15.08855738,9.99e-05,53.2144,278.7952,80.2096,279.9009,0.00067537,0.00010482,0.0,0 STARLINK-4287,1 53020U 22076AL  23078.81681317  .00010482  00000-0  67537-3 0  9998,2 53020  53.2144 278.7952 0000999  80.2096 279.9009 15.08855738 39056,6917.832,95.437,540.388,539.006,0.0
53020.0,STARLINK-4287,PAYLOAD,2023-03-20 06:43:54,15.0886847,0.0001062,53.2144,276.7131,80.9434,279.1678,0.00099718,0.0001563,0.0,0 STARLINK-4287,1 53020U 22076AL  23079.28048670  .00015630  00000-0  99718-3 0  9995,2 53020  53.2144 276.7131 0001062  80.9434 279.1678 15.08868470 39598,6917.793,95.436,540.393,538.924,0.0
53020.0,STARLINK-4287,PAYLOAD,2023-03-20 17:51:36,15.08853287,8.74e-05,53.2144,274.6322,82.4539,277.6552,0.00064503,9.996e-05,0.0,0 STARLINK-4287,1 53020U 22076AL  23079.74417154  .00009996  00000-0  64503-3 0  9995,2 53020  53.2144 274.6322 0000874  82.4539 277.6552 15.08853287 39190,6917.84,95.437,540.309,539.1,0.0
53020.0,STARLINK-4287,PAYLOAD,2023-03-20 19:26:59,15.08854149,9.31e-05,53.2143,274.3344,87.6934,272.4165,0.0006387,9.896e-05,0.0,0 STARLINK-4287,1 53020U 22076AL  23079.81041103  .00009896  00000-0  63870-3 0  9995,2 53020  53.2143 274.3344 0000931  87.6934 272.4165 15.08854149 39674,6917.837,95.437,540.346,539.058,0.0
53020.0,STARLINK-4287,PAYLOAD,2023-03-21 19:17:46,15.08849712,0.0001031,53.2144,269.8724,89.1852,270.9258,0.00038239,5.805e-05,0.0,0 STARLINK-4287,1 53020U 22076AL  23080.80400963  .00005805  00000-0  38239-3 0  9996,2 53020  53.2144 269.8724 0001031  89.1852 270.9258 15.08849712 39827,6917.851,95.437,540.429,539.002,0.0
53020.0,STARLINK-4287,PAYLOAD,2023-03-22 19:08:33,15.08846052,0.0001119,53.215,265.4148,102.7871,257.3246,0.00021182,3.085e-05,0.0,0 STARLINK-4287,1 53020U 22076AL  23081.79761053  .00003085  00000-0  21182-3 0  9992,2 53020  53.2150 265.4148 0001119 102.7871 257.3246 15.08846052 39972,6917.862,95.437,540.501,538.953,0.0
53020.0,STARLINK-4287,PAYLOAD,2023-03-23 04:40:52,15.08835238,0.0001175,53.2158,263.6299,106.8417,253.2704,-4.5605e-05,-1.013e-05,0.0,0 STARLINK-4287,1 53020U 22076AL  23082.19505130 -.00001013  00000-0 -45605-4 0  9997,2 53020  53.2158 263.6299 0001175 106.8417 253.2704 15.08835238 40037,6917.895,95.438,540.573,538.947,0.0
53020.0,STARLINK-4287,PAYLOAD,2023-03-23 18:59:20,15.08839384,9.58e-05,53.2144,260.9518,86.204,273.9061,0.00042121,6.422e-05,0.0,0 STARLINK-4287,1 53020U 22076AL  23082.79121483  .00006422  00000-0  42121-3 0  9994,2 53020  53.2144 260.9518 0000958  86.2040 273.9061 15.08839384 39654,6917.882,95.438,540.41,539.085,0.0
53020.0,STARLINK-4287,PAYLOAD,2023-03-24 04:31:39,15.08880505,9.42e-05,53.2143,259.1671,85.9179,274.1921,0.0024069,0.00038269,0.0,0 STARLINK-4287,1 53020U 22076AL  23083.18865277  .00038269  00000-0  24069-2 0  9998,2 53020  53.2143 259.1671 0000942  85.9179 274.1921 15.08880505 40184,6917.757,95.435,540.273,538.97,0.0
53020.0,STARLINK-4287,PAYLOAD,2023-03-24 15:39:20,15.08888457,7.65e-05,53.215,257.0851,87.4402,272.6677,0.001703,0.00026955,0.0,0 STARLINK-4287,1 53020U 22076AL  23083.65232060  .00026955  00000-0  17030-2 0  9997,2 53020  53.2150 257.0851 0000765  87.4402 272.6677 15.08888457 40251,6917.732,95.434,540.126,539.068,0.0
53020.0,STARLINK-4287,PAYLOAD,2023-03-24 18:50:06,15.08896553,9.44e-05,53.2144,256.4911,74.0442,286.0654,0.0016294,0.00025779,0.0,0 STARLINK-4287,1 53020U 22076AL  23083.78479599  .00025779  00000-0  16294-2 0  9995,2 53020  53.2144 256.4911 0000944  74.0442 286.0654 15.08896553 39808,6917.708,95.434,540.226,538.92,0.0
